NORAD_CAT_ID,OBJECT_NAME,OBJECT_TYPE,EPOCH,MEAN_MOTION,ECCENTRICITY,INCLINATION,RA_OF_ASC_NODE,ARG_OF_PERICENTER,MEAN_ANOMALY,BSTAR,MEAN_MOTION_DOT,MEAN_MOTION_DDOT,TLE_LINE0,TLE_LINE1,TLE_LINE2,SEMIMAJOR_AXIS,PERIOD,APOGEE,PERIGEE,DECAYED
53172.0,STARLINK-4299,PAYLOAD,2023-01-06 20:13:44,15.08838406,0.0002983,53.2146,316.8946,50.7506,309.3751,0.00016314,2.309e-05,0.0,0 STARLINK-4299,1 53172U 22083AS  23006.84287607  .00002309  00000-0  16314-3 0  9998,2 53172  53.2146 316.8946 0002983  50.7506 309.3751 15.08838406 26620,6917.885,95.438,541.814,537.687,0.0
53172.0,STARLINK-4299,PAYLOAD,2023-01-07 02:35:17,15.08834968,0.0002385,53.2182,315.707,47.4936,312.6257,0.00012655,1.726e-05,0.0,0 STARLINK-4299,1 53172U 22083AS  23007.10783819  .00001726  00000-0  12655-3 0  9990,2 53172  53.2182 315.7070 0002385  47.4936 312.6257 15.08834968 27305,6917.896,95.438,541.411,538.111,0.0
53172.0,STARLINK-4299,PAYLOAD,2023-01-07 05:46:03,15.08837393,0.0002351,53.2181,315.1121,44.907,315.2112,0.00015636,2.201e-05,0.0,0 STARLINK-4299,1 53172U 22083AS  23007.24031761  .00002201  00000-0  15636-3 0  9998,2 53172  53.2181 315.1121 0002351  44.9070 315.2112 15.08837393 26683,6917.888000000001,95.438,541.38,538.127,0.0
53172.0,STARLINK-4299,PAYLOAD,2023-01-07 20:04:31,15.08842778,0.0002286,53.2168,312.4351,59.812,300.3099,0.00032002,4.809e-05,0.0,0 STARLINK-4299,1 53172U 22083AS  23007.83647834  .00004809  00000-0  32002-3 0  9999,2 53172  53.2168 312.4351 0002286  59.8120 300.3099 15.08842778 26773,6917.871999999999,95.437,541.318,538.155,0.0
53172.0,STARLINK-4299,PAYLOAD,2023-01-08 02:26:04,15.08849526,0.0002252,53.2167,311.2457,60.1131,300.0084,0.00038501,5.846e-05,0.0,0 STARLINK-4299,1 53172U 22083AS  23008.10143530  .00005846  00000-0  38501-3 0  9996,2 53172  53.2167 311.2457 0002252  60.1131 300.0084 15.08849526 27451,6917.851,95.437,541.274,538.158,0.0
53172.0,STARLINK-4299,PAYLOAD,2023-01-08 13:33:46,15.08843114,0.0002398,53.2184,309.1645,66.9407,293.1838,0.0002033,2.949e-05,0.0,0 STARLINK-4299,1 53172U 22083AS  23008.56511659  .00002949  00000-0  20330-3 0  9999,2 53172  53.2184 309.1645 0002398  66.9407 293.1838 15.08843114 26888,6917.871,95.437,541.395,538.077,0.0
53172.0,STARLINK-4299,PAYLOAD,2023-01-08 19:55:18,15.0884456,0.0002079,53.2185,307.9768,62.1725,297.9478,5.5769e-05,6e-06,0.0,0 STARLINK-4299,1 53172U 22083AS  23008.83007570  .00000600  00000-0  55769-4 0  9998,2 53172  53.2185 307.9768 0002079  62.1725 297.9478 15.08844560 27562,6917.866,95.437,541.17,538.293,0.0
53172.0,STARLINK-4299,PAYLOAD,2023-01-09 05:27:37,15.08852352,0.0002142,53.2178,306.1927,64.7763,295.3451,0.00023192,3.406e-05,0.0,0 STARLINK-4299,1 53172U 22083AS  23009.22751192  .00003406  00000-0  23192-3 0  9999,2 53172  53.2178 306.1927 0002142  64.7763 295.3451 15.08852352 26989,6917.843000000002,95.437,541.189,538.226,0.0
53172.0,STARLINK-4299,PAYLOAD,2023-01-10 05:18:24,15.08843906,0.0001883,53.2181,301.7317,70.0692,290.0503,0.00023691,3.485e-05,0.0,0 STARLINK-4299,1 53172U 22083AS  23010.22111722  .00003485  00000-0  23691-3 0  9991,2 53172  53.2181 301.7317 0001883  70.0692 290.0503 15.08843906 27772,6917.868,95.437,541.036,538.431,0.0
53172.0,STARLINK-4299,PAYLOAD,2023-01-10 19:36:52,15.08843444,0.000181,53.218,299.0559,72.1473,287.9716,0.00023247,3.414e-05,0.0,0 STARLINK-4299,1 53172U 22083AS  23010.81727815  .00003414  00000-0  23247-3 0  9991,2 53172  53.2180 299.0559 0001810  72.1473 287.9716 15.08843444 27226,6917.87,95.437,540.987,538.4830000000002,0.0
53172.0,STARLINK-4299,PAYLOAD,2023-01-11 11:30:43,15.0884755,0.0001887,53.218,296.0818,81.3389,278.7817,0.00023354,3.431e-05,0.0,0 STARLINK-4299,1 53172U 22083AS  23011.47967311  .00003431  00000-0  23354-3 0  9999,2 53172  53.2180 296.0818 0001887  81.3389 278.7817 15.08847550 27966,6917.857,95.437,541.028,538.4169999999998,0.0
53172.0,STARLINK-4299,PAYLOAD,2023-01-11 21:03:02,15.08838547,0.0001622,53.2173,294.2992,88.1278,271.99,-0.00010755,-1.999e-05,0.0,0 STARLINK-4299,1 53172U 22083AS  23011.87711517 -.00001999  00000-0 -10755-3 0  9998,2 53172  53.2173 294.2992 0001622  88.1278 271.9900 15.08838547 27380,6917.885,95.438,540.872,538.628,0.0
53172.0,STARLINK-4299,PAYLOAD,2023-01-12 19:18:26,15.08846827,0.0001516,53.2167,290.1359,98.1491,261.9673,0.00023575,3.467e-05,0.0,0 STARLINK-4299,1 53172U 22083AS  23012.80447015  .00003467  00000-0  23575-3 0  9995,2 53172  53.2167 290.1359 0001516  98.1491 261.9673 15.08846827 28168,6917.86,95.437,540.773,538.6759999999998,0.0
53172.0,STARLINK-4299,PAYLOAD,2023-01-12 22:29:12,15.08854042,0.0001425,53.2168,289.5411,103.5236,256.5915,0.00050261,7.723e-05,0.0,0 STARLINK-4299,1 53172U 22083AS  23012.93694747  .00007723  00000-0  50261-3 0  9996,2 53172  53.2168 289.5411 0001425 103.5236 256.5915 15.08854042 27545,6917.837,95.437,540.688,538.717,0.0
53172.0,STARLINK-4299,PAYLOAD,2023-01-13 01:39:58,15.08867706,0.00014,53.2166,288.9464,105.5799,254.5347,0.0011217,0.00017622,0.0,0 STARLINK-4299,1 53172U 22083AS  23013.06942471  .00017622  00000-0  11217-2 0  9997,2 53172  53.2166 288.9464 0001400 105.5799 254.5347 15.08867706 28205,6917.795999999999,95.436,540.629,538.692,0.0
53172.0,STARLINK-4299,PAYLOAD,2023-01-13 11:12:17,15.08860746,0.0001515,53.2173,287.1618,77.3217,282.7944,0.0010048,0.00015749,0.0,0 STARLINK-4299,1 53172U 22083AS  23013.46686535  .00015749  00000-0  10048-2 0  9996,2 53172  53.2173 287.1618 0001515  77.3217 282.7944 15.08860746 28262,6917.816999999999,95.436,540.73,538.634,0.0
53172.0,STARLINK-4299,PAYLOAD,2023-01-13 12:47:40,15.08855978,0.0001824,53.2165,286.8698,79.6213,280.4985,0.00072081,0.00011207,0.0,0 STARLINK-4299,1 53172U 22083AS  23013.53310649  .00011207  00000-0  72081-3 0  9995,2 53172  53.2165 286.8698 0001824  79.6213 280.4985 15.08855978 27632,6917.831999999999,95.437,540.9580000000001,538.435,0.0
53172.0,STARLINK-4299,PAYLOAD,2023-01-13 20:44:36,15.0883148,0.0001406,53.2157,285.3786,90.3742,269.7411,-0.00012823,-2.328e-05,0.0,0 STARLINK-4299,1 53172U 22083AS  23013.86431009 -.00002328  00000-0 -12823-3 0  9999,2 53172  53.2157 285.3786 0001406  90.3742 269.7411 15.08831480 27689,6917.906,95.438,540.744,538.799,0.0
53172.0,STARLINK-4299,PAYLOAD,2023-01-14 03:06:09,15.08840395,0.000135,53.2155,284.1893,83.9061,276.2085,0.00056582,8.729e-05,0.0,0 STARLINK-4299,1 53172U 22083AS  23014.12927112  .00008729  00000-0  56582-3 0  9993,2 53172  53.2155 284.1893 0001350  83.9061 276.2085 15.08840395 28364,6917.879,95.438,540.678,538.81,0.0
53172.0,STARLINK-4299,PAYLOAD,2023-01-15 02:56:56,15.08849469,0.0001575,53.2162,279.72700000000003,89.3619,270.7553,0.00093116,0.00014566,0.0,0 STARLINK-4299,1 53172U 22083AS  23015.12287699  .00014566  00000-0  93116-3 0  9993,2 53172  53.2162 279.7270 0001575  89.3619 270.7553 15.08849469 28516,6917.851,95.437,540.806,538.627,0.0
53172.0,STARLINK-4299,PAYLOAD,2023-01-15 17:15:25,15.08846638,0.000225,53.2154,277.0519,79.1102,281.0144,0.00063274,9.798e-05,0.0,0 STARLINK-4299,1 53172U 22083AS  23015.71904018  .00009798  00000-0  63274-3 0  9992,2 53172  53.2154 277.0519 0002250  79.1102 281.0144 15.08846638 28605,6917.86,95.437,541.2819999999999,538.169,0.0
53172.0,STARLINK-4299,PAYLOAD,2023-01-15 22:01:34,15.08860346,0.0001383,53.2156,276.1599,94.954,265.161,0.0010642999999999,0.000167,0.0,0 STARLINK-4299,1 53172U 22083AS  23015.91775668  .00016700  00000-0  10643-2 0  9993,2 53172  53.2156 276.1599 0001383  94.9540 265.1610 15.08860346 27996,6917.818,95.436,540.64,538.726,0.0
53172.0,STARLINK-4299,PAYLOAD,2023-01-15 23:36:57,15.08868857,0.0001284,53.2173,275.8621,90.8069,269.3071,0.0014238,0.00022462,0.0,0 STARLINK-4299,1 53172U 22083AS  23015.98399554  .00022462  00000-0  14238-2 0  9992,2 53172  53.2173 275.8621 0001284  90.8069 269.3071 15.08868857 28643,6917.792,95.436,540.545,538.769,0.0
53172.0,STARLINK-4299,PAYLOAD,2023-01-16 10:44:39,15.08855983,0.0001177,53.2163,273.7779,72.821,287.2911,0.0012793,0.0002014,0.0,0 STARLINK-4299,1 53172U 22083AS  23016.44767774  .00020140  00000-0  12793-2 0  9992,2 53172  53.2163 273.7779 0001177  72.8210 287.2911 15.08855983 28718,6917.831999999999,95.437,540.511,538.882,0.0
53172.0,STARLINK-4299,PAYLOAD,2023-01-16 17:06:12,15.08842688,0.0002827,53.2164,272.5894,76.7866,283.3441,0.00092179,0.00014414,0.0,0 STARLINK-4299,1 53172U 22083AS  23016.71264571  .00014414  00000-0  92179-3 0  9993,2 53172  53.2164 272.5894 0002827  76.7866 283.3441 15.08842688 28754,6917.871999999999,95.437,541.693,537.781,0.0
53172.0,STARLINK-4299,PAYLOAD,2023-01-17 02:38:31,15.0882739,0.0001349,53.2159,270.8038,84.1178,275.9967,0.00029826,4.46e-05,0.0,0 STARLINK-4299,1 53172U 22083AS  23017.11008797  .00004460  00000-0  29826-3 0  9993,2 53172  53.2159 270.8038 0001349  84.1178 275.9967 15.08827390 28816,6917.919,95.438,540.717,538.851,0.0
53172.0,STARLINK-4299,PAYLOAD,2023-01-17 21:43:09,15.08844283,0.000125,53.217,267.2358,81.6288,278.4846,0.00081863,0.00012766,0.0,0 STARLINK-4299,1 53172U 22083AS  23017.90497114  .00012766  00000-0  81863-3 0  9992,2 53172  53.2170 267.2358 0001250  81.6288 278.4846 15.08844283 28295,6917.866999999999,95.437,540.597,538.868,0.0
53172.0,STARLINK-4299,PAYLOAD,2023-01-18 02:29:18,15.08854899,0.0001254,53.217,266.3439,79.0808,281.0325,0.00099817,0.0001564,0.0,0 STARLINK-4299,1 53172U 22083AS  23018.10368907  .00015640  00000-0  99817-3 0  9994,2 53172  53.2170 266.3439 0001254  79.0808 281.0325 15.08854899 28968,6917.835,95.437,540.567,538.832,0.0
53172.0,STARLINK-4299,PAYLOAD,2023-01-18 08:50:51,15.08860564,8.51e-05,53.2171,265.1554,53.5233,306.5838,0.0009652999999999,0.00015117,0.0,0 STARLINK-4299,1 53172U 22083AS  23018.36864921  .00015117  00000-0  96530-3 0  9997,2 53172  53.2171 265.1554 0000851  53.5233 306.5838 15.08860564 28367,6917.818,95.436,540.271,539.094,0.0
